[
  {
    "model": "shared.district",
    "pk": 16,
    "fields": {
      "region": 2,
      "soato_id": 1703202,
      "name_uz": "Oltinko'l tumani",
      "name_ru": "Алтынкульский район",
      "name_en": "Oltinko'l district"
    }
  },
  {
    "model": "shared.district",
    "pk": 17,
    "fields": {
      "region": 2,
      "soato_id": 1703203,
      "name_uz": "Andijon tumani",
      "name_ru": "Андижанский район",
      "name_en": "Andijon district"
    }
  },
  {
    "model": "shared.district",
    "pk": 18,
    "fields": {
      "region": 2,
      "soato_id": 1703206,
      "name_uz": "Baliqchi tumani",
      "name_ru": "Балыкчинский район",
      "name_en": "Baliqchi district"
    }
  },
  {
    "model": "shared.district",
    "pk": 19,
    "fields": {
      "region": 2,
      "soato_id": 1703209,
      "name_uz": "Bo'z tumani",
      "name_ru": "Бозский район",
      "name_en": "Bo'z district"
    }
  },
  {
    "model": "shared.district",
    "pk": 20,
    "fields": {
      "region": 2,
      "soato_id": 1703210,
      "name_uz": "Buloqboshi tumani",
      "name_ru": "Булакбашинский район",
      "name_en": "Buloqboshi district"
    }
  },
  {
    "model": "shared.district",
    "pk": 21,
    "fields": {
      "region": 2,
      "soato_id": 1703211,
      "name_uz": "Jalaquduq tumani",
      "name_ru": "Джалалкудукский район",
      "name_en": "Jalaquduq district"
    }
  },
  {
    "model": "shared.district",
    "pk": 22,
    "fields": {
      "region": 2,
      "soato_id": 1703214,
      "name_uz": "Izboskan tumani",
      "name_ru": "Избасканский район",
      "name_en": "Izboskan district"
    }
  },
  {
    "model": "shared.district",
    "pk": 23,
    "fields": {
      "region": 2,
      "soato_id": 1703217,
      "name_uz": "Ulug'nor tumani",
      "name_ru": "Улугноpский район",
      "name_en": "Ulug'nor district"
    }
  },
  {
    "model": "shared.district",
    "pk": 24,
    "fields": {
      "region": 2,
      "soato_id": 1703220,
      "name_uz": "Qo'rg'ontepa tumani",
      "name_ru": "Кургантепинский район",
      "name_en": "Qo'rg'ontepa district"
    }
  },
  {
    "model": "shared.district",
    "pk": 25,
    "fields": {
      "region": 2,
      "soato_id": 1703224,
      "name_uz": "Asaka tumani",
      "name_ru": "Асакинский район",
      "name_en": "Asaka district"
    }
  },
  {
    "model": "shared.district",
    "pk": 26,
    "fields": {
      "region": 2,
      "soato_id": 1703227,
      "name_uz": "Marxamat tumani",
      "name_ru": "Мархаматский район",
      "name_en": "Marxamat district"
    }
  },
  {
    "model": "shared.district",
    "pk": 27,
    "fields": {
      "region": 2,
      "soato_id": 1703230,
      "name_uz": "Shahrixon tumani",
      "name_ru": "Шахриханский район",
      "name_en": "Shahrixon district"
    }
  },
  {
    "model": "shared.district",
    "pk": 28,
    "fields": {
      "region": 2,
      "soato_id": 1703232,
      "name_uz": "Paxtaobod tumani",
      "name_ru": "Пахтаабадский район",
      "name_en": "Paxtaobod district"
    }
  },
  {
    "model": "shared.district",
    "pk": 29,
    "fields": {
      "region": 2,
      "soato_id": 1703236,
      "name_uz": "Xo'jaobod tumani",
      "name_ru": "Ходжаабадский район",
      "name_en": "Xo'jaobod district"
    }
  },
  {
    "model": "shared.district",
    "pk": 30,
    "fields": {
      "region": 2,
      "soato_id": 1703401,
      "name_uz": "Andijon",
      "name_ru": "Андижан",
      "name_en": "Andijon"
    }
  },
  {
    "model": "shared.district",
    "pk": 31,
    "fields": {
      "region": 2,
      "soato_id": 1703408,
      "name_uz": "Xonobod",
      "name_ru": "Ханабад",
      "name_en": "Xonobod"
    }
  },
  {
    "model": "shared.district",
    "pk": 32,
    "fields": {
      "region": 3,
      "soato_id": 1706204,
      "name_uz": "Olot tumani",
      "name_ru": "Алатский район",
      "name_en": "Olot district"
    }
  },
  {
    "model": "shared.district",
    "pk": 33,
    "fields": {
      "region": 3,
      "soato_id": 1706207,
      "name_uz": "Buxoro tumani",
      "name_ru": "Бухарский район",
      "name_en": "Buxoro district"
    }
  },
  {
    "model": "shared.district",
    "pk": 34,
    "fields": {
      "region": 3,
      "soato_id": 1706212,
      "name_uz": "Vobkent tumani",
      "name_ru": "Вабкентский район",
      "name_en": "Vobkent district"
    }
  },
  {
    "model": "shared.district",
    "pk": 35,
    "fields": {
      "region": 3,
      "soato_id": 1706215,
      "name_uz": "G'ijduvon tumani",
      "name_ru": "Гиждуванский район",
      "name_en": "G'ijduvon district"
    }
  },
  {
    "model": "shared.district",
    "pk": 36,
    "fields": {
      "region": 3,
      "soato_id": 1706219,
      "name_uz": "Kogon tumani",
      "name_ru": "Каганский район",
      "name_en": "Kogon district"
    }
  },
  {
    "model": "shared.district",
    "pk": 37,
    "fields": {
      "region": 3,
      "soato_id": 1706230,
      "name_uz": "Qorako'l tumani",
      "name_ru": "Каракульский район",
      "name_en": "Qorako'l district"
    }
  },
  {
    "model": "shared.district",
    "pk": 38,
    "fields": {
      "region": 3,
      "soato_id": 1706232,
      "name_uz": "Qorovulbozor tumani",
      "name_ru": "Караулбазарский район",
      "name_en": "Qorovulbozor district"
    }
  },
  {
    "model": "shared.district",
    "pk": 39,
    "fields": {
      "region": 3,
      "soato_id": 1706240,
      "name_uz": "Peshku tumani",
      "name_ru": "Пешкунский район",
      "name_en": "Peshku district"
    }
  },
  {
    "model": "shared.district",
    "pk": 40,
    "fields": {
      "region": 3,
      "soato_id": 1706242,
      "name_uz": "Romitan tumani",
      "name_ru": "Ромитанский район",
      "name_en": "Romitan district"
    }
  },
  {
    "model": "shared.district",
    "pk": 41,
    "fields": {
      "region": 3,
      "soato_id": 1706246,
      "name_uz": "Jondor tumani",
      "name_ru": "Жандарский район",
      "name_en": "Jondor district"
    }
  },
  {
    "model": "shared.district",
    "pk": 42,
    "fields": {
      "region": 3,
      "soato_id": 1706258,
      "name_uz": "Shofirkon tumani",
      "name_ru": "Шафирканский район",
      "name_en": "Shofirkon district"
    }
  },
  {
    "model": "shared.district",
    "pk": 43,
    "fields": {
      "region": 3,
      "soato_id": 1706401,
      "name_uz": "Buxoro",
      "name_ru": "Бухара",
      "name_en": "Buxoro"
    }
  },
  {
    "model": "shared.district",
    "pk": 44,
    "fields": {
      "region": 3,
      "soato_id": 1706403,
      "name_uz": "Kogon",
      "name_ru": "Каган",
      "name_en": "Kogon"
    }
  },
  {
    "model": "shared.district",
    "pk": 45,
    "fields": {
      "region": 4,
      "soato_id": 1708201,
      "name_uz": "Arnasoy tumani",
      "name_ru": "Арнасайский район",
      "name_en": "Arnasoy district"
    }
  },
  {
    "model": "shared.district",
    "pk": 46,
    "fields": {
      "region": 4,
      "soato_id": 1708204,
      "name_uz": "Baxmal tumani",
      "name_ru": "Бахмальский район",
      "name_en": "Baxmal district"
    }
  },
  {
    "model": "shared.district",
    "pk": 47,
    "fields": {
      "region": 4,
      "soato_id": 1708209,
      "name_uz": "G'allaorol tumani",
      "name_ru": "Галляаральский район",
      "name_en": "G'allaorol district"
    }
  },
  {
    "model": "shared.district",
    "pk": 49,
    "fields": {
      "region": 4,
      "soato_id": 1708215,
      "name_uz": "Do'stlik tumani",
      "name_ru": "Дустликский район",
      "name_en": "Do'stlik district"
    }
  },
  {
    "model": "shared.district",
    "pk": 50,
    "fields": {
      "region": 4,
      "soato_id": 1708218,
      "name_uz": "Zomin tumani",
      "name_ru": "Зааминский район",
      "name_en": "Zomin district"
    }
  },
  {
    "model": "shared.district",
    "pk": 51,
    "fields": {
      "region": 4,
      "soato_id": 1708220,
      "name_uz": "Zarbdor tumani",
      "name_ru": "Зарбдарский район",
      "name_en": "Zarbdor district"
    }
  },
  {
    "model": "shared.district",
    "pk": 52,
    "fields": {
      "region": 4,
      "soato_id": 1708223,
      "name_uz": "Mirzacho'l tumani",
      "name_ru": "Мирзачульский район",
      "name_en": "Mirzacho'l district"
    }
  },
  {
    "model": "shared.district",
    "pk": 53,
    "fields": {
      "region": 4,
      "soato_id": 1708225,
      "name_uz": "Zafarobod tumani",
      "name_ru": "Зафарабадский район",
      "name_en": "Zafarobod district"
    }
  },
  {
    "model": "shared.district",
    "pk": 54,
    "fields": {
      "region": 4,
      "soato_id": 1708228,
      "name_uz": "Paxtakor tumani",
      "name_ru": "Пахтакорский район",
      "name_en": "Paxtakor district"
    }
  },
  {
    "model": "shared.district",
    "pk": 55,
    "fields": {
      "region": 4,
      "soato_id": 1708235,
      "name_uz": "Forish tumani",
      "name_ru": "Фаришский район",
      "name_en": "Forish district"
    }
  },
  {
    "model": "shared.district",
    "pk": 56,
    "fields": {
      "region": 4,
      "soato_id": 1708237,
      "name_uz": "Yangiobod tumani",
      "name_ru": "Янгиабадский район",
      "name_en": "Yangiobod district"
    }
  },
  {
    "model": "shared.district",
    "pk": 57,
    "fields": {
      "region": 4,
      "soato_id": 1708401,
      "name_uz": "Jizzax",
      "name_ru": "Джизак",
      "name_en": "Jizzax"
    }
  },
  {
    "model": "shared.district",
    "pk": 58,
    "fields": {
      "region": 5,
      "soato_id": 1710207,
      "name_uz": "G'uzor tumani",
      "name_ru": "Гузарский район",
      "name_en": "G'uzor district"
    }
  },
  {
    "model": "shared.district",
    "pk": 59,
    "fields": {
      "region": 5,
      "soato_id": 1710212,
      "name_uz": "Dehqonobod tumani",
      "name_ru": "Дехканабадский район",
      "name_en": "Dehqonobod district"
    }
  },
  {
    "model": "shared.district",
    "pk": 60,
    "fields": {
      "region": 5,
      "soato_id": 1710220,
      "name_uz": "Qamashi tumani",
      "name_ru": "Камашинский район",
      "name_en": "Qamashi district"
    }
  },
  {
    "model": "shared.district",
    "pk": 61,
    "fields": {
      "region": 5,
      "soato_id": 1710224,
      "name_uz": "Qarshi tumani",
      "name_ru": "Каршинский район",
      "name_en": "Qarshi district"
    }
  },
  {
    "model": "shared.district",
    "pk": 62,
    "fields": {
      "region": 5,
      "soato_id": 1710229,
      "name_uz": "Koson tumani",
      "name_ru": "Касанский район",
      "name_en": "Koson district"
    }
  },
  {
    "model": "shared.district",
    "pk": 63,
    "fields": {
      "region": 5,
      "soato_id": 1710232,
      "name_uz": "Kitob tumani",
      "name_ru": "Китабский район",
      "name_en": "Kitob district"
    }
  },
  {
    "model": "shared.district",
    "pk": 64,
    "fields": {
      "region": 5,
      "soato_id": 1710233,
      "name_uz": "Mirishkor tumani",
      "name_ru": "Миришкорский район",
      "name_en": "Mirishkor district"
    }
  },
  {
    "model": "shared.district",
    "pk": 65,
    "fields": {
      "region": 5,
      "soato_id": 1710234,
      "name_uz": "Muborak tumani",
      "name_ru": "Мубарекский район",
      "name_en": "Muborak district"
    }
  },
  {
    "model": "shared.district",
    "pk": 66,
    "fields": {
      "region": 5,
      "soato_id": 1710235,
      "name_uz": "Nishon tumani",
      "name_ru": "Нишанский район",
      "name_en": "Nishon district"
    }
  },
  {
    "model": "shared.district",
    "pk": 67,
    "fields": {
      "region": 5,
      "soato_id": 1710237,
      "name_uz": "Kasbi tumani",
      "name_ru": "Касбинский район",
      "name_en": "Kasbi district"
    }
  },
  {
    "model": "shared.district",
    "pk": 68,
    "fields": {
      "region": 5,
      "soato_id": 1710242,
      "name_uz": "Chiroqchi tumani",
      "name_ru": "Чиракчинский район",
      "name_en": "Chiroqchi district"
    }
  },
  {
    "model": "shared.district",
    "pk": 69,
    "fields": {
      "region": 5,
      "soato_id": 1710245,
      "name_uz": "Shahrisabz tumani",
      "name_ru": "Шахрисабзский район",
      "name_en": "Shahrisabz district"
    }
  },
  {
    "model": "shared.district",
    "pk": 70,
    "fields": {
      "region": 5,
      "soato_id": 1710250,
      "name_uz": "Yakkabog' tumani",
      "name_ru": "Яккабагский район",
      "name_en": "Yakkabog' district"
    }
  },
  {
    "model": "shared.district",
    "pk": 71,
    "fields": {
      "region": 5,
      "soato_id": 1710401,
      "name_uz": "Qarshi",
      "name_ru": "Карши",
      "name_en": "Qarshi"
    }
  },
  {
    "model": "shared.district",
    "pk": 72,
    "fields": {
      "region": 5,
      "soato_id": 1710405,
      "name_uz": "Shahrisabz",
      "name_ru": "Шахрисабз",
      "name_en": "Shahrisabz"
    }
  },
  {
    "model": "shared.district",
    "pk": 73,
    "fields": {
      "region": 6,
      "soato_id": 1712211,
      "name_uz": "Konimex tumani",
      "name_ru": "Канимехский район",
      "name_en": "Konimex district"
    }
  },
  {
    "model": "shared.district",
    "pk": 74,
    "fields": {
      "region": 6,
      "soato_id": 1712216,
      "name_uz": "Qiziltepa tumani",
      "name_ru": "Кызылтепинский район",
      "name_en": "Qiziltepa district"
    }
  },
  {
    "model": "shared.district",
    "pk": 75,
    "fields": {
      "region": 6,
      "soato_id": 1712230,
      "name_uz": "Navbahor tumani",
      "name_ru": "Навбахорский район",
      "name_en": "Navbahor district"
    }
  },
  {
    "model": "shared.district",
    "pk": 76,
    "fields": {
      "region": 6,
      "soato_id": 1712234,
      "name_uz": "Karmana tumani",
      "name_ru": "Карманинский район",
      "name_en": "Karmana district"
    }
  },
  {
    "model": "shared.district",
    "pk": 77,
    "fields": {
      "region": 6,
      "soato_id": 1712238,
      "name_uz": "Nurota tumani",
      "name_ru": "Нуратинский район",
      "name_en": "Nurota district"
    }
  },
  {
    "model": "shared.district",
    "pk": 78,
    "fields": {
      "region": 6,
      "soato_id": 1712244,
      "name_uz": "Tomdi tumani",
      "name_ru": "Тамдынский район",
      "name_en": "Tomdi district"
    }
  },
  {
    "model": "shared.district",
    "pk": 79,
    "fields": {
      "region": 6,
      "soato_id": 1712248,
      "name_uz": "Uchquduq tumani",
      "name_ru": "Учкудукский район",
      "name_en": "Uchquduq district"
    }
  },
  {
    "model": "shared.district",
    "pk": 80,
    "fields": {
      "region": 6,
      "soato_id": 1712251,
      "name_uz": "Xatirchi tumani",
      "name_ru": "Хатырчинский район",
      "name_en": "Xatirchi district"
    }
  },
  {
    "model": "shared.district",
    "pk": 81,
    "fields": {
      "region": 6,
      "soato_id": 1712401,
      "name_uz": "Navoiy",
      "name_ru": "Навои",
      "name_en": "Navoiy"
    }
  },
  {
    "model": "shared.district",
    "pk": 83,
    "fields": {
      "region": 7,
      "soato_id": 1714204,
      "name_uz": "Mingbuloq tumani",
      "name_ru": "Мингбулакский pайон",
      "name_en": "Mingbuloq district"
    }
  },
  {
    "model": "shared.district",
    "pk": 84,
    "fields": {
      "region": 7,
      "soato_id": 1714207,
      "name_uz": "Kosonsoy tumani",
      "name_ru": "Касансайский район",
      "name_en": "Kosonsoy district"
    }
  },
  {
    "model": "shared.district",
    "pk": 85,
    "fields": {
      "region": 7,
      "soato_id": 1714212,
      "name_uz": "Namangan tumani",
      "name_ru": "Наманганский район",
      "name_en": "Namangan district"
    }
  },
  {
    "model": "shared.district",
    "pk": 86,
    "fields": {
      "region": 7,
      "soato_id": 1714216,
      "name_uz": "Norin tumani",
      "name_ru": "Нарынский район",
      "name_en": "Norin district"
    }
  },
  {
    "model": "shared.district",
    "pk": 87,
    "fields": {
      "region": 7,
      "soato_id": 1714219,
      "name_uz": "Pop tumani",
      "name_ru": "Папский район",
      "name_en": "Pop district"
    }
  },
  {
    "model": "shared.district",
    "pk": 88,
    "fields": {
      "region": 7,
      "soato_id": 1714224,
      "name_uz": "To'raqo'rg'on tumani",
      "name_ru": "Туракурганский район",
      "name_en": "To'raqo'rg'on district"
    }
  },
  {
    "model": "shared.district",
    "pk": 89,
    "fields": {
      "region": 7,
      "soato_id": 1714229,
      "name_uz": "Uychi tumani",
      "name_ru": "Уйчинский район",
      "name_en": "Uychi district"
    }
  },
  {
    "model": "shared.district",
    "pk": 90,
    "fields": {
      "region": 7,
      "soato_id": 1714234,
      "name_uz": "Uchqo'rg'on tumani",
      "name_ru": "Учкурганский район",
      "name_en": "Uchqo'rg'on district"
    }
  },
  {
    "model": "shared.district",
    "pk": 91,
    "fields": {
      "region": 7,
      "soato_id": 1714236,
      "name_uz": "Chortoq tumani",
      "name_ru": "Чартакский район",
      "name_en": "Chortoq district"
    }
  },
  {
    "model": "shared.district",
    "pk": 92,
    "fields": {
      "region": 7,
      "soato_id": 1714237,
      "name_uz": "Chust tumani",
      "name_ru": "Чустский район",
      "name_en": "Chust district"
    }
  },
  {
    "model": "shared.district",
    "pk": 93,
    "fields": {
      "region": 7,
      "soato_id": 1714242,
      "name_uz": "Yangiqo'rg'on tumani",
      "name_ru": "Янгикурганский район",
      "name_en": "Yangiqo'rg'on district"
    }
  },
  {
    "model": "shared.district",
    "pk": 94,
    "fields": {
      "region": 7,
      "soato_id": 1714401,
      "name_uz": "Namangan",
      "name_ru": "Наманган",
      "name_en": "Namangan"
    }
  },
  {
    "model": "shared.district",
    "pk": 95,
    "fields": {
      "region": 8,
      "soato_id": 1718203,
      "name_uz": "Oqdaryo tumani",
      "name_ru": "Акдарьинский район",
      "name_en": "Oqdaryo district"
    }
  },
  {
    "model": "shared.district",
    "pk": 96,
    "fields": {
      "region": 8,
      "soato_id": 1718206,
      "name_uz": "Bulung'ur tumani",
      "name_ru": "Булунгурский район",
      "name_en": "Bulung'ur district"
    }
  },
  {
    "model": "shared.district",
    "pk": 97,
    "fields": {
      "region": 8,
      "soato_id": 1718209,
      "name_uz": "Jomboy tumani",
      "name_ru": "Джамбайский район",
      "name_en": "Jomboy district"
    }
  },
  {
    "model": "shared.district",
    "pk": 98,
    "fields": {
      "region": 8,
      "soato_id": 1718212,
      "name_uz": "Ishtixon tumani",
      "name_ru": "Иштыханский район",
      "name_en": "Ishtixon district"
    }
  },
  {
    "model": "shared.district",
    "pk": 99,
    "fields": {
      "region": 8,
      "soato_id": 1718215,
      "name_uz": "Kattaqo'rg'on tumani",
      "name_ru": "Каттакурганский район",
      "name_en": "Kattaqo'rg'on district"
    }
  },
  {
    "model": "shared.district",
    "pk": 100,
    "fields": {
      "region": 8,
      "soato_id": 1718216,
      "name_uz": "Qo'shrabot tumani",
      "name_ru": "Кушрабадский район",
      "name_en": "Qo'shrabot district"
    }
  },
  {
    "model": "shared.district",
    "pk": 101,
    "fields": {
      "region": 8,
      "soato_id": 1718218,
      "name_uz": "Narpay tumani",
      "name_ru": "Нарпайский район",
      "name_en": "Narpay district"
    }
  },
  {
    "model": "shared.district",
    "pk": 102,
    "fields": {
      "region": 8,
      "soato_id": 1718224,
      "name_uz": "Payariq tumani",
      "name_ru": "Пайарыкский район",
      "name_en": "Payariq district"
    }
  },
  {
    "model": "shared.district",
    "pk": 103,
    "fields": {
      "region": 8,
      "soato_id": 1718227,
      "name_uz": "Pastdarg'om tumani",
      "name_ru": "Пастдаргомский район",
      "name_en": "Pastdarg'om district"
    }
  },
  {
    "model": "shared.district",
    "pk": 104,
    "fields": {
      "region": 8,
      "soato_id": 1718230,
      "name_uz": "Paxtachi tumani",
      "name_ru": "Пахтачийский район",
      "name_en": "Paxtachi district"
    }
  },
  {
    "model": "shared.district",
    "pk": 105,
    "fields": {
      "region": 8,
      "soato_id": 1718233,
      "name_uz": "Samarqand tumani",
      "name_ru": "Самаркандский район",
      "name_en": "Samarqand district"
    }
  },
  {
    "model": "shared.district",
    "pk": 106,
    "fields": {
      "region": 8,
      "soato_id": 1718235,
      "name_uz": "Nurobod tumani",
      "name_ru": "Нурабадский район",
      "name_en": "Nurobod district"
    }
  },
  {
    "model": "shared.district",
    "pk": 107,
    "fields": {
      "region": 8,
      "soato_id": 1718236,
      "name_uz": "Urgut tumani",
      "name_ru": "Ургутский район",
      "name_en": "Urgut district"
    }
  },
  {
    "model": "shared.district",
    "pk": 108,
    "fields": {
      "region": 8,
      "soato_id": 1718238,
      "name_uz": "Tayloq tumani",
      "name_ru": "Тайлякский район",
      "name_en": "Tayloq district"
    }
  },
  {
    "model": "shared.district",
    "pk": 109,
    "fields": {
      "region": 8,
      "soato_id": 1718401,
      "name_uz": "Samarqand",
      "name_ru": "Самарканд",
      "name_en": "Samarqand"
    }
  },
  {
    "model": "shared.district",
    "pk": 110,
    "fields": {
      "region": 8,
      "soato_id": 1718406,
      "name_uz": "Kattaqo'rg'on",
      "name_ru": "Каттакурган",
      "name_en": "Kattaqo'rg'on"
    }
  },
  {
    "model": "shared.district",
    "pk": 111,
    "fields": {
      "region": 5723,
      "soato_id": 1722201,
      "name_uz": "Oltinsoy tumani",
      "name_ru": "Алтынсайский район",
      "name_en": "Oltinsoy district"
    }
  },
  {
    "model": "shared.district",
    "pk": 112,
    "fields": {
      "region": 5723,
      "soato_id": 1722202,
      "name_uz": "Angor tumani",
      "name_ru": "Ангорский район",
      "name_en": "Angor district"
    }
  },
  {
    "model": "shared.district",
    "pk": 113,
    "fields": {
      "region": 5723,
      "soato_id": 1722204,
      "name_uz": "Boysun tumani",
      "name_ru": "Байсунский район",
      "name_en": "Boysun district"
    }
  },
  {
    "model": "shared.district",
    "pk": 114,
    "fields": {
      "region": 5723,
      "soato_id": 1722207,
      "name_uz": "Muzrabot tumani",
      "name_ru": "Музрабадский район",
      "name_en": "Muzrabot district"
    }
  },
  {
    "model": "shared.district",
    "pk": 115,
    "fields": {
      "region": 5723,
      "soato_id": 1722210,
      "name_uz": "Denov tumani",
      "name_ru": "Денауский район",
      "name_en": "Denov district"
    }
  },
  {
    "model": "shared.district",
    "pk": 116,
    "fields": {
      "region": 5723,
      "soato_id": 1722212,
      "name_uz": "Jarqo'rg'on tumani",
      "name_ru": "Джаркурганский район",
      "name_en": "Jarqo'rg'on district"
    }
  },
  {
    "model": "shared.district",
    "pk": 117,
    "fields": {
      "region": 5723,
      "soato_id": 1722214,
      "name_uz": "Qumqo'rg'on tumani",
      "name_ru": "Кумкурганский район",
      "name_en": "Qumqo'rg'on district"
    }
  },
  {
    "model": "shared.district",
    "pk": 118,
    "fields": {
      "region": 5723,
      "soato_id": 1722215,
      "name_uz": "Qiziriq tumani",
      "name_ru": "Кизирикский район",
      "name_en": "Qiziriq district"
    }
  },
  {
    "model": "shared.district",
    "pk": 119,
    "fields": {
      "region": 5723,
      "soato_id": 1722217,
      "name_uz": "Sariosiyo tumani",
      "name_ru": "Сариасийский район",
      "name_en": "Sariosiyo district"
    }
  },
  {
    "model": "shared.district",
    "pk": 120,
    "fields": {
      "region": 5723,
      "soato_id": 1722220,
      "name_uz": "Termiz tumani",
      "name_ru": "Термезский район",
      "name_en": "Termiz district"
    }
  },
  {
    "model": "shared.district",
    "pk": 121,
    "fields": {
      "region": 5723,
      "soato_id": 1722221,
      "name_uz": "Uzun tumani",
      "name_ru": "Узунский район",
      "name_en": "Uzun district"
    }
  },
  {
    "model": "shared.district",
    "pk": 122,
    "fields": {
      "region": 5723,
      "soato_id": 1722223,
      "name_uz": "Sherobod tumani",
      "name_ru": "Шерабадский район",
      "name_en": "Sherobod district"
    }
  },
  {
    "model": "shared.district",
    "pk": 123,
    "fields": {
      "region": 5723,
      "soato_id": 1722226,
      "name_uz": "Sho'rchi tumani",
      "name_ru": "Шурчинский район",
      "name_en": "Sho'rchi district"
    }
  },
  {
    "model": "shared.district",
    "pk": 125,
    "fields": {
      "region": 10,
      "soato_id": 1724206,
      "name_uz": "Oqoltin tumani",
      "name_ru": "Акалтынский район",
      "name_en": "Oqoltin district"
    }
  },
  {
    "model": "shared.district",
    "pk": 126,
    "fields": {
      "region": 10,
      "soato_id": 1724212,
      "name_uz": "Boyovut tumani",
      "name_ru": "Баяутский район",
      "name_en": "Boyovut district"
    }
  },
  {
    "model": "shared.district",
    "pk": 127,
    "fields": {
      "region": 10,
      "soato_id": 1724216,
      "name_uz": "Sayxunobod tumani",
      "name_ru": "Сайхунабадский район",
      "name_en": "Sayxunobod district"
    }
  },
  {
    "model": "shared.district",
    "pk": 128,
    "fields": {
      "region": 10,
      "soato_id": 1724220,
      "name_uz": "Guliston tumani",
      "name_ru": "Гулистанский район",
      "name_en": "Guliston district"
    }
  },
  {
    "model": "shared.district",
    "pk": 129,
    "fields": {
      "region": 10,
      "soato_id": 1724226,
      "name_uz": "Sardoba tumani",
      "name_ru": "Сардобинский район",
      "name_en": "Sardoba district"
    }
  },
  {
    "model": "shared.district",
    "pk": 130,
    "fields": {
      "region": 10,
      "soato_id": 1724228,
      "name_uz": "Mirzaobod tumani",
      "name_ru": "Мирзаабадский район",
      "name_en": "Mirzaobod district"
    }
  },
  {
    "model": "shared.district",
    "pk": 131,
    "fields": {
      "region": 10,
      "soato_id": 1724231,
      "name_uz": "Sirdaryo tumani",
      "name_ru": "Сырдарьинский район",
      "name_en": "Sirdaryo district"
    }
  },
  {
    "model": "shared.district",
    "pk": 132,
    "fields": {
      "region": 10,
      "soato_id": 1724235,
      "name_uz": "Xovos tumani",
      "name_ru": "Хавастский район",
      "name_en": "Xovos district"
    }
  },
  {
    "model": "shared.district",
    "pk": 133,
    "fields": {
      "region": 10,
      "soato_id": 1724401,
      "name_uz": "Guliston",
      "name_ru": "Гулистан",
      "name_en": "Guliston"
    }
  },
  {
    "model": "shared.district",
    "pk": 134,
    "fields": {
      "region": 10,
      "soato_id": 1724410,
      "name_uz": "Shirin",
      "name_ru": "Шиpин",
      "name_en": "Shirin"
    }
  },
  {
    "model": "shared.district",
    "pk": 135,
    "fields": {
      "region": 10,
      "soato_id": 1724413,
      "name_uz": "Yangiyer",
      "name_ru": "Янгиеp",
      "name_en": "Yangiyer"
    }
  },
  {
    "model": "shared.district",
    "pk": 137,
    "fields": {
      "region": 11,
      "soato_id": 1726262,
      "name_uz": "Uchtepa tumani",
      "name_ru": "Учтепинский район",
      "name_en": "Uchtepa district"
    }
  },
  {
    "model": "shared.district",
    "pk": 138,
    "fields": {
      "region": 11,
      "soato_id": 1726264,
      "name_uz": "Bektemir tumani",
      "name_ru": "Бектемирский район",
      "name_en": "Bektemir district"
    }
  },
  {
    "model": "shared.district",
    "pk": 139,
    "fields": {
      "region": 11,
      "soato_id": 1726266,
      "name_uz": "Yunusobod tumani",
      "name_ru": "Юнусабадский район",
      "name_en": "Yunusobod district"
    }
  },
  {
    "model": "shared.district",
    "pk": 140,
    "fields": {
      "region": 11,
      "soato_id": 1726269,
      "name_uz": "Mirzo Ulug'bek tumani",
      "name_ru": "Мирзо-Улугбекский район",
      "name_en": "Mirzo Ulug'bek district"
    }
  },
  {
    "model": "shared.district",
    "pk": 141,
    "fields": {
      "region": 11,
      "soato_id": 1726273,
      "name_uz": "Mirobod tumani",
      "name_ru": "Мирабадский район",
      "name_en": "Mirobod district"
    }
  },
  {
    "model": "shared.district",
    "pk": 142,
    "fields": {
      "region": 11,
      "soato_id": 1726277,
      "name_uz": "Shayxontohur tumani",
      "name_ru": "Шайхантахурский район",
      "name_en": "Shayxontohur district"
    }
  },
  {
    "model": "shared.district",
    "pk": 143,
    "fields": {
      "region": 11,
      "soato_id": 1726280,
      "name_uz": "Olmazor tumani",
      "name_ru": "Алмазарский район",
      "name_en": "Olmazor district"
    }
  },
  {
    "model": "shared.district",
    "pk": 144,
    "fields": {
      "region": 11,
      "soato_id": 1726283,
      "name_uz": "Sirg'ali tumani",
      "name_ru": "Сергелийский район",
      "name_en": "Sirg'ali district"
    }
  },
  {
    "model": "shared.district",
    "pk": 145,
    "fields": {
      "region": 11,
      "soato_id": 1726287,
      "name_uz": "Yakkasaroy tumani",
      "name_ru": "Яккасарайский район",
      "name_en": "Yakkasaroy district"
    }
  },
  {
    "model": "shared.district",
    "pk": 146,
    "fields": {
      "region": 11,
      "soato_id": 1726290,
      "name_uz": "Yashnobod tumani",
      "name_ru": "Яшнабадский район",
      "name_en": "Yashnobod district"
    }
  },
  {
    "model": "shared.district",
    "pk": 147,
    "fields": {
      "region": 11,
      "soato_id": 1726294,
      "name_uz": "Chilonzor tumani",
      "name_ru": "Чиланзарский район",
      "name_en": "Chilonzor district"
    }
  },
  {
    "model": "shared.district",
    "pk": 148,
    "fields": {
      "region": 12,
      "soato_id": 1727206,
      "name_uz": "Oqqo'rg'on tumani",
      "name_ru": "Аккурганский район",
      "name_en": "Oqqo'rg'on district"
    }
  },
  {
    "model": "shared.district",
    "pk": 149,
    "fields": {
      "region": 12,
      "soato_id": 1727212,
      "name_uz": "Ohangaron tumani",
      "name_ru": "Ахангаранский район",
      "name_en": "Ohangaron district"
    }
  },
  {
    "model": "shared.district",
    "pk": 150,
    "fields": {
      "region": 12,
      "soato_id": 1727220,
      "name_uz": "Bekobod tumani",
      "name_ru": "Бекабадский район",
      "name_en": "Bekobod district"
    }
  },
  {
    "model": "shared.district",
    "pk": 151,
    "fields": {
      "region": 12,
      "soato_id": 1727224,
      "name_uz": "Bo'stonliq tumani",
      "name_ru": "Бостанлыкский район",
      "name_en": "Bo'stonliq district"
    }
  },
  {
    "model": "shared.district",
    "pk": 152,
    "fields": {
      "region": 12,
      "soato_id": 1727228,
      "name_uz": "Bo'ka tumani",
      "name_ru": "Букинский район",
      "name_en": "Bo'ka district"
    }
  },
  {
    "model": "shared.district",
    "pk": 154,
    "fields": {
      "region": 12,
      "soato_id": 1727237,
      "name_uz": "Zangiota tumani",
      "name_ru": "Зангиатинский район",
      "name_en": "Zangiota district"
    }
  },
  {
    "model": "shared.district",
    "pk": 155,
    "fields": {
      "region": 12,
      "soato_id": 1727239,
      "name_uz": "Yuqorichirchiq tumani",
      "name_ru": "Юкоричирчикский район",
      "name_en": "Yuqorichirchiq district"
    }
  },
  {
    "model": "shared.district",
    "pk": 156,
    "fields": {
      "region": 12,
      "soato_id": 1727248,
      "name_uz": "Qibray tumani",
      "name_ru": "Кибрайский район",
      "name_en": "Qibray district"
    }
  },
  {
    "model": "shared.district",
    "pk": 157,
    "fields": {
      "region": 12,
      "soato_id": 1727249,
      "name_uz": "Parkent tumani",
      "name_ru": "Паркентский район",
      "name_en": "Parkent district"
    }
  },
  {
    "model": "shared.district",
    "pk": 158,
    "fields": {
      "region": 12,
      "soato_id": 1727250,
      "name_uz": "Piskent tumani",
      "name_ru": "Пскентский район",
      "name_en": "Piskent district"
    }
  },
  {
    "model": "shared.district",
    "pk": 159,
    "fields": {
      "region": 12,
      "soato_id": 1727253,
      "name_uz": "O'rtachirchiq tumani",
      "name_ru": "Уртачирчикский район",
      "name_en": "O'rtachirchiq district"
    }
  },
  {
    "model": "shared.district",
    "pk": 160,
    "fields": {
      "region": 12,
      "soato_id": 1727256,
      "name_uz": "Chinoz tumani",
      "name_ru": "Чиназский район",
      "name_en": "Chinoz district"
    }
  },
  {
    "model": "shared.district",
    "pk": 161,
    "fields": {
      "region": 12,
      "soato_id": 1727259,
      "name_uz": "Yangiyo'l tumani",
      "name_ru": "Янгиюльский район",
      "name_en": "Yangiyo'l district"
    }
  },
  {
    "model": "shared.district",
    "pk": 162,
    "fields": {
      "region": 12,
      "soato_id": 1727265,
      "name_uz": "Toshkent tumani",
      "name_ru": "Ташкентский район",
      "name_en": "Toshkent district"
    }
  },
  {
    "model": "shared.district",
    "pk": 163,
    "fields": {
      "region": 12,
      "soato_id": 1727401,
      "name_uz": "Nurafshon",
      "name_ru": "Нурафшон",
      "name_en": "Nurafshon"
    }
  },
  {
    "model": "shared.district",
    "pk": 164,
    "fields": {
      "region": 12,
      "soato_id": 1727404,
      "name_uz": "Olmaliq",
      "name_ru": "Алмалык",
      "name_en": "Olmaliq"
    }
  },
  {
    "model": "shared.district",
    "pk": 165,
    "fields": {
      "region": 12,
      "soato_id": 1727407,
      "name_uz": "Angren",
      "name_ru": "Ангрен",
      "name_en": "Angren"
    }
  },
  {
    "model": "shared.district",
    "pk": 166,
    "fields": {
      "region": 12,
      "soato_id": 1727413,
      "name_uz": "Bekobod",
      "name_ru": "Бекабад",
      "name_en": "Bekobod"
    }
  },
  {
    "model": "shared.district",
    "pk": 167,
    "fields": {
      "region": 12,
      "soato_id": 1727415,
      "name_uz": "Ohangaron",
      "name_ru": "Ахангаран",
      "name_en": "Ohangaron"
    }
  },
  {
    "model": "shared.district",
    "pk": 168,
    "fields": {
      "region": 12,
      "soato_id": 1727419,
      "name_uz": "Chirchiq",
      "name_ru": "Чиpчик",
      "name_en": "Chirchiq"
    }
  },
  {
    "model": "shared.district",
    "pk": 169,
    "fields": {
      "region": 12,
      "soato_id": 1727424,
      "name_uz": "Yangiyo'l",
      "name_ru": "Янгиюль",
      "name_en": "Yangiyo'l"
    }
  },
  {
    "model": "shared.district",
    "pk": 170,
    "fields": {
      "region": 13,
      "soato_id": 1730203,
      "name_uz": "Oltiariq tumani",
      "name_ru": "Алтыарыкский район",
      "name_en": "Oltiariq district"
    }
  },
  {
    "model": "shared.district",
    "pk": 171,
    "fields": {
      "region": 13,
      "soato_id": 1730206,
      "name_uz": "Qo'shtepa tumani",
      "name_ru": "Куштепинский район",
      "name_en": "Qo'shtepa district"
    }
  },
  {
    "model": "shared.district",
    "pk": 172,
    "fields": {
      "region": 13,
      "soato_id": 1730209,
      "name_uz": "Bog'dod tumani",
      "name_ru": "Багдадский район",
      "name_en": "Bog'dod district"
    }
  },
  {
    "model": "shared.district",
    "pk": 173,
    "fields": {
      "region": 13,
      "soato_id": 1730212,
      "name_uz": "Buvayda tumani",
      "name_ru": "Бувайдинский район",
      "name_en": "Buvayda district"
    }
  },
  {
    "model": "shared.district",
    "pk": 174,
    "fields": {
      "region": 13,
      "soato_id": 1730215,
      "name_uz": "Beshariq tumani",
      "name_ru": "Бешарыкский район",
      "name_en": "Beshariq district"
    }
  },
  {
    "model": "shared.district",
    "pk": 175,
    "fields": {
      "region": 13,
      "soato_id": 1730218,
      "name_uz": "Quva tumani",
      "name_ru": "Кувинский район",
      "name_en": "Quva district"
    }
  },
  {
    "model": "shared.district",
    "pk": 176,
    "fields": {
      "region": 13,
      "soato_id": 1730221,
      "name_uz": "Uchko'prik tumani",
      "name_ru": "Учкуприкский район",
      "name_en": "Uchko'prik district"
    }
  },
  {
    "model": "shared.district",
    "pk": 177,
    "fields": {
      "region": 13,
      "soato_id": 1730224,
      "name_uz": "Rishton tumani",
      "name_ru": "Риштанский район",
      "name_en": "Rishton district"
    }
  },
  {
    "model": "shared.district",
    "pk": 178,
    "fields": {
      "region": 13,
      "soato_id": 1730226,
      "name_uz": "So'x tumani",
      "name_ru": "Сохский район",
      "name_en": "So'x district"
    }
  },
  {
    "model": "shared.district",
    "pk": 179,
    "fields": {
      "region": 13,
      "soato_id": 1730227,
      "name_uz": "Toshloq tumani",
      "name_ru": "Ташлакский район",
      "name_en": "Toshloq district"
    }
  },
  {
    "model": "shared.district",
    "pk": 180,
    "fields": {
      "region": 13,
      "soato_id": 1730230,
      "name_uz": "O'zbekiston tumani",
      "name_ru": "Узбекистанский район",
      "name_en": "O'zbekiston district"
    }
  },
  {
    "model": "shared.district",
    "pk": 181,
    "fields": {
      "region": 13,
      "soato_id": 1730233,
      "name_uz": "Farg'ona tumani",
      "name_ru": "Ферганский район",
      "name_en": "Farg'ona district"
    }
  },
  {
    "model": "shared.district",
    "pk": 182,
    "fields": {
      "region": 13,
      "soato_id": 1730236,
      "name_uz": "Dang'ara tumani",
      "name_ru": "Дангаринский район",
      "name_en": "Dang'ara district"
    }
  },
  {
    "model": "shared.district",
    "pk": 183,
    "fields": {
      "region": 13,
      "soato_id": 1730238,
      "name_uz": "Furqat tumani",
      "name_ru": "Фуркатский район",
      "name_en": "Furqat district"
    }
  },
  {
    "model": "shared.district",
    "pk": 184,
    "fields": {
      "region": 13,
      "soato_id": 1730242,
      "name_uz": "Yozyovon tumani",
      "name_ru": "Язъяванский район",
      "name_en": "Yozyovon district"
    }
  },
  {
    "model": "shared.district",
    "pk": 185,
    "fields": {
      "region": 13,
      "soato_id": 1730401,
      "name_uz": "Farg'ona",
      "name_ru": "Фергана",
      "name_en": "Farg'ona"
    }
  },
  {
    "model": "shared.district",
    "pk": 186,
    "fields": {
      "region": 13,
      "soato_id": 1730405,
      "name_uz": "Qo'qon",
      "name_ru": "Коканд",
      "name_en": "Qo'qon"
    }
  },
  {
    "model": "shared.district",
    "pk": 187,
    "fields": {
      "region": 13,
      "soato_id": 1730408,
      "name_uz": "Quvasoy",
      "name_ru": "Кувасай",
      "name_en": "Quvasoy"
    }
  },
  {
    "model": "shared.district",
    "pk": 188,
    "fields": {
      "region": 13,
      "soato_id": 1730412,
      "name_uz": "Marg'ilon",
      "name_ru": "Маpгилан",
      "name_en": "Marg'ilon"
    }
  },
  {
    "model": "shared.district",
    "pk": 189,
    "fields": {
      "region": 14,
      "soato_id": 1733204,
      "name_uz": "Bog'ot tumani",
      "name_ru": "Багатский район",
      "name_en": "Bog'ot district"
    }
  },
  {
    "model": "shared.district",
    "pk": 190,
    "fields": {
      "region": 14,
      "soato_id": 1733208,
      "name_uz": "Gurlan tumani",
      "name_ru": "Гурленский район",
      "name_en": "Gurlan district"
    }
  },
  {
    "model": "shared.district",
    "pk": 191,
    "fields": {
      "region": 14,
      "soato_id": 1733212,
      "name_uz": "Qo'shko'pir tumani",
      "name_ru": "Кошкупырский район",
      "name_en": "Qo'shko'pir district"
    }
  },
  {
    "model": "shared.district",
    "pk": 192,
    "fields": {
      "region": 14,
      "soato_id": 1733217,
      "name_uz": "Urganch tumani",
      "name_ru": "Ургенчский район",
      "name_en": "Urganch district"
    }
  },
  {
    "model": "shared.district",
    "pk": 193,
    "fields": {
      "region": 14,
      "soato_id": 1733220,
      "name_uz": "Xazorasp tumani",
      "name_ru": "Хазараспский район",
      "name_en": "Xazorasp district"
    }
  },
  {
    "model": "shared.district",
    "pk": 194,
    "fields": {
      "region": 14,
      "soato_id": 1733223,
      "name_uz": "Xonqa tumani",
      "name_ru": "Ханкинский район",
      "name_en": "Xonqa district"
    }
  },
  {
    "model": "shared.district",
    "pk": 195,
    "fields": {
      "region": 14,
      "soato_id": 1733226,
      "name_uz": "Xiva tumani",
      "name_ru": "Хивинский район",
      "name_en": "Xiva district"
    }
  },
  {
    "model": "shared.district",
    "pk": 196,
    "fields": {
      "region": 14,
      "soato_id": 1733230,
      "name_uz": "Shovot tumani",
      "name_ru": "Шаватский район",
      "name_en": "Shovot district"
    }
  },
  {
    "model": "shared.district",
    "pk": 197,
    "fields": {
      "region": 14,
      "soato_id": 1733233,
      "name_uz": "Yangiariq tumani",
      "name_ru": "Янгиарыкский район",
      "name_en": "Yangiariq district"
    }
  },
  {
    "model": "shared.district",
    "pk": 198,
    "fields": {
      "region": 14,
      "soato_id": 1733236,
      "name_uz": "Yangibozor tumani",
      "name_ru": "Янгибазарский район",
      "name_en": "Yangibozor district"
    }
  },
  {
    "model": "shared.district",
    "pk": 199,
    "fields": {
      "region": 14,
      "soato_id": 1733401,
      "name_uz": "Urganch",
      "name_ru": "Ургенч",
      "name_en": "Urganch"
    }
  },
  {
    "model": "shared.district",
    "pk": 200,
    "fields": {
      "region": 14,
      "soato_id": 1733406,
      "name_uz": "Xiva",
      "name_ru": "Хива",
      "name_en": "Xiva"
    }
  },
  {
    "model": "shared.district",
    "pk": 201,
    "fields": {
      "region": 15,
      "soato_id": 1735204,
      "name_uz": "Amudaryo tumani",
      "name_ru": "Амударьинский район",
      "name_en": "Amudaryo district"
    }
  },
  {
    "model": "shared.district",
    "pk": 202,
    "fields": {
      "region": 15,
      "soato_id": 1735207,
      "name_uz": "Beruniy tumani",
      "name_ru": "Берунийский район",
      "name_en": "Beruniy district"
    }
  },
  {
    "model": "shared.district",
    "pk": 203,
    "fields": {
      "region": 15,
      "soato_id": 1735211,
      "name_uz": "Qorao'zak tumani",
      "name_ru": "Караузякский район",
      "name_en": "Qorao'zak district"
    }
  },
  {
    "model": "shared.district",
    "pk": 204,
    "fields": {
      "region": 15,
      "soato_id": 1735212,
      "name_uz": "Kegeyli tumani",
      "name_ru": "Кегейлийский район",
      "name_en": "Kegeyli district"
    }
  },
  {
    "model": "shared.district",
    "pk": 205,
    "fields": {
      "region": 15,
      "soato_id": 1735215,
      "name_uz": "Qo'ng'irot tumani",
      "name_ru": "Кунградский район",
      "name_en": "Qo'ng'irot district"
    }
  },
  {
    "model": "shared.district",
    "pk": 206,
    "fields": {
      "region": 15,
      "soato_id": 1735218,
      "name_uz": "Qanliko'l tumani",
      "name_ru": "Канлыкульский район",
      "name_en": "Qanliko'l district"
    }
  },
  {
    "model": "shared.district",
    "pk": 207,
    "fields": {
      "region": 15,
      "soato_id": 1735222,
      "name_uz": "Mo'ynoq tumani",
      "name_ru": "Муйнакский район",
      "name_en": "Mo'ynoq district"
    }
  },
  {
    "model": "shared.district",
    "pk": 208,
    "fields": {
      "region": 15,
      "soato_id": 1735225,
      "name_uz": "Nukus tumani",
      "name_ru": "Нукусский район",
      "name_en": "Nukus district"
    }
  },
  {
    "model": "shared.district",
    "pk": 209,
    "fields": {
      "region": 15,
      "soato_id": 1735228,
      "name_uz": "Taxiatosh tumani",
      "name_ru": "Тахиаташский район",
      "name_en": "Taxiatosh district"
    }
  },
  {
    "model": "shared.district",
    "pk": 210,
    "fields": {
      "region": 15,
      "soato_id": 1735230,
      "name_uz": "Taxtako'pir tumani",
      "name_ru": "Тахтакупырский район",
      "name_en": "Taxtako'pir district"
    }
  },
  {
    "model": "shared.district",
    "pk": 211,
    "fields": {
      "region": 15,
      "soato_id": 1735233,
      "name_uz": "To'rtko'l tumani",
      "name_ru": "Турткульский район",
      "name_en": "To'rtko'l district"
    }
  },
  {
    "model": "shared.district",
    "pk": 212,
    "fields": {
      "region": 15,
      "soato_id": 1735236,
      "name_uz": "Xo'jayli tumani",
      "name_ru": "Ходжейлийский район",
      "name_en": "Xo'jayli district"
    }
  },
  {
    "model": "shared.district",
    "pk": 213,
    "fields": {
      "region": 15,
      "soato_id": 1735240,
      "name_uz": "Chimboy tumani",
      "name_ru": "Чимбайский район",
      "name_en": "Chimboy district"
    }
  },
  {
    "model": "shared.district",
    "pk": 214,
    "fields": {
      "region": 15,
      "soato_id": 1735243,
      "name_uz": "Shumanay tumani",
      "name_ru": "Шуманайский район",
      "name_en": "Shumanay district"
    }
  },
  {
    "model": "shared.district",
    "pk": 215,
    "fields": {
      "region": 15,
      "soato_id": 1735250,
      "name_uz": "Ellikqal'a tumani",
      "name_ru": "Элликкалинский район",
      "name_en": "Ellikqal'a district"
    }
  },
  {
    "model": "shared.district",
    "pk": 216,
    "fields": {
      "region": 15,
      "soato_id": 1735401,
      "name_uz": "Nukus",
      "name_ru": "Нукус",
      "name_en": "Nukus"
    }
  },
  {
    "model": "shared.district",
    "pk": 2905,
    "fields": {
      "region": 4,
      "soato_id": 1708212,
      "name_uz": "Sh.Rashidov tumani",
      "name_ru": "Ш.Рашидовский район",
      "name_en": "Sh.Rashidov district"
    }
  },
  {
    "model": "shared.district",
    "pk": 2939,
    "fields": {
      "region": 6,
      "soato_id": 1712408,
      "name_uz": "Zarafshon",
      "name_ru": "Заpафшан",
      "name_en": "Zarafshon"
    }
  },
  {
    "model": "shared.district",
    "pk": 2981,
    "fields": {
      "region": 5723,
      "soato_id": 1722401,
      "name_uz": "Termiz",
      "name_ru": "Термез",
      "name_en": "Termiz"
    }
  },
  {
    "model": "shared.district",
    "pk": 5867,
    "fields": {
      "region": 12,
      "soato_id": 1727233,
      "name_uz": "Quyichirchiq tumani",
      "name_ru": "Куйичирчикский район",
      "name_en": "Quyichirchiq district"
    }
  },
  {
    "model": "shared.district",
    "pk": 8574,
    "fields": {
      "region": 10,
      "soato_id": 1724414,
      "name_uz": "Baxt shaxar",
      "name_ru": "город Бахт",
      "name_en": "Baxt city"
    }
  },
  {
    "model": "shared.district",
    "pk": 8575,
    "fields": {
      "region": 15,
      "soato_id": 1735209,
      "name_uz": "Bo‘zatov tumani",
      "name_ru": "Бузатовский район",
      "name_en": "Bo‘zatov district"
    }
  },
  {
    "model": "shared.district",
    "pk": 8580,
    "fields": {
      "region": 5723,
      "soato_id": 1722203,
      "name_uz": "Bandixon tumani",
      "name_ru": "Бандиханский район",
      "name_en": "Bandixon district"
    }
  },
  {
    "model": "shared.district",
    "pk": 8581,
    "fields": {
      "region": 14,
      "soato_id": 1733221,
      "name_uz": "Tuproqqal’a tumani",
      "name_ru": "Тупроккалинский район",
      "name_en": "Tuproqqal’a district"
    }
  },
  {
    "model": "shared.district",
    "pk": 8584,
    "fields": {
      "region": 6,
      "soato_id": 1712412,
      "name_uz": "G‘ozg‘on tumani",
      "name_ru": "Газганский район",
      "name_en": "G‘ozg‘on district"
    }
  },
  {
    "model": "shared.district",
    "pk": 8587,
    "fields": {
      "region": 11,
      "soato_id": 1726292,
      "name_uz": "Yangihayot tumani",
      "name_ru": "Янгихаётский район",
      "name_en": "Yangihayot district"
    }
  },
  {
    "model": "shared.district",
    "pk": 8591,
    "fields": {
      "region": 5,
      "soato_id": 1710240,
      "name_uz": "Ko‘kdala tumani",
      "name_ru": "Кукдалинский район",
      "name_en": "Ko‘kdala district"
    }
  },
  {
    "model": "shared.district",
    "pk": 8595,
    "fields": {
      "region": 7,
      "soato_id": 1714401365,
      "name_uz": "Davlatobod tumani",
      "name_ru": "Давлатабадский район",
      "name_en": "Davlatobod district"
    }
  },
  {
    "model": "shared.district",
    "pk": 8601,
    "fields": {
      "region": 7,
      "soato_id": 1714401367,
      "name_uz": "Yangi Namangan tumani",
      "name_ru": "Янги Наманганский район",
      "name_en": "Yangi Namangan district"
    }
  }
]